ONEWEB-0451             
1 51643U 22012X   22253.58334491  .00014150  00000+0  13199-2 0  9992
2 51643  87.1805 285.8376 0002592  77.3632 321.6116 14.94129092  1300
ONEWEB-0452             
1 51644U 22012Y   22253.58334491  .00012287  00000+0  11460-2 0  9991
2 51644  87.1800 285.8317 0004058  82.8767 274.7306 14.94127324  1305
ONEWEB-0455             
1 51645U 22012Z   22253.52095990  .00000185  00000+0  75214-4 0  9997
2 51645  87.5264 299.3358 0014847 277.4240  82.5263 14.22296209 30516
ONEWEB-0456             
1 51646U 22012AA  22253.58334491  .00042511  00000+0  12122+0 0  9999
2 51646  87.8807 309.7698 0001566  89.4150 146.5389 13.10354854  1303
ONEWEB-0457             
1 51647U 22012AB  22253.58334491  .00037476  00000+0  10690+0 0  9992
2 51647  87.8850 309.6511 0002311 116.2806 222.6209 13.10364238  1305
ONEWEB-0458             
1 51648U 22012AC  22253.58334491  .00042255  00000+0  12049+0 0  9994
2 51648  87.8835 309.7825 0002208  84.4728 158.8411 13.10356149  1309
ONEWEB-0461             
1 51649U 22012AD  22253.58334491  .00021011  00000+0  19597-2 0  9990
2 51649  87.2403 287.3319 0002367  66.1983  83.5529 14.94122388  1303
ONEWEB-0463             
1 51650U 22012AE  22253.58334491  .00015261  00000+0  14243-2 0  9995
2 51650  87.1810 285.8528 0004634  94.9505 328.0716 14.94103324  1303
ONEWEB-0464             
1 51651U 22012AF  22253.58334491  .00041592  00000+0  11860+0 0  9991
2 51651  87.8800 309.7520 0002004  76.6879 181.3040 13.10359648  1307
ONEWEB-0468             
1 51652U 22012AG  22253.58334491  .00042743  00000+0  12188+0 0  9995
2 51652  87.8799 309.7662 0001986  97.0497 131.5575 13.10353823  1302
ONEWEB-0473             
1 51653U 22012AH  22253.58334491  .00039681  00000+0  11317+0 0  9996
2 51653  87.8862 309.7880 0002203  83.6026 211.1868 13.10361133  1301
ONEWEB-0474             
1 51654U 22012AJ  22253.58334491  .00037799  00000+0  10783+0 0  9991
2 51654  87.8800 309.7546 0002000  76.9269 254.7023 13.10357906  1301
ONEWEB-0475             
1 51655U 22012AK  22253.58334491  .00012555  00000+0  11727-2 0  9997
2 51655  87.1863 285.9962 0003891  93.2061 211.5980 14.94070592  1301
